{"type": "FeatureCollection", "features": [ {"type": "Feature", "properties": {"norad_id": 44476, "name": "INTELSAT 39 (IS-39)", "group": "intelsat", "lat": 0.03216309159525923, "lon": 88.35548819504064, "alt_km": 35785.164728584576, "timestamp": "2025-12-07T20:38:13.745474+00:00", "meta": {"OBJECT_NAME": "INTELSAT 39 (IS-39)", "OBJECT_ID": "2019-049B", "EPOCH": "2025-12-06T22:31:13.300896", "MEAN_MOTION": 1.00267191, "ECCENTRICITY": 8.792e-05, "INCLINATION": 0.0164, "RA_OF_ASC_NODE": 319.6906, "ARG_OF_PERICENTER": 183.4518, "MEAN_ANOMALY": 332.5825, "EPHEMERIS_TYPE": 0, "CLASSIFICATION_TYPE": "U", "NORAD_CAT_ID": 44476, "ELEMENT_SET_NO": 999, "REV_AT_EPOCH": 2320, "BSTAR": 0, "MEAN_MOTION_DOT": 4e-07, "MEAN_MOTION_DDOT": 0}, "tle": {"line1": "1 44476U 19049B   25340.93834839  .00000040  00000+0  00000+0 0  9991", "line2": "2 44476   0.0164 319.6906 0000879 183.4518 332.5825  1.00267191 23208"}}, "geometry": {"type": "Point", "coordinates": [88.35548819504064, 0.03216309159525923]}}, {"type": "Feature", "properties": {"norad_id": 46114, "name": "GALAXY 30 (G-30)", "group": "intelsat", "lat": -0.0386661805160297, "lon": -98.57454881243974, "alt_km": 35775.986174193706, "timestamp": "2025-12-07T20:38:13.745486+00:00", "meta": {"OBJECT_NAME": "GALAXY 30 (G-30)", "OBJECT_ID": "2020-056C", "EPOCH": "2025-12-07T06:11:27.743136", "MEAN_MOTION": 1.00270615, "ECCENTRICITY": 0.00024689, "INCLINATION": 0.0168, "RA_OF_ASC_NODE": 334.3319, "ARG_OF_PERICENTER": 280.5472, "MEAN_ANOMALY": 149.2672, "EPHEMERIS_TYPE": 0, "CLASSIFICATION_TYPE": "U", "NORAD_CAT_ID": 46114, "ELEMENT_SET_NO": 999, "REV_AT_EPOCH": 1936, "BSTAR": 0, "MEAN_MOTION_DOT": 4.2e-07, "MEAN_MOTION_DDOT": 0}, "tle": {"line1": "1 46114U 20056C   25341.25795999  .00000042  00000+0  00000+0 0  9993", "line2": "2 46114   0.0168 334.3319 0002468 280.5472 149.2672  1.00270615 19369"}}, "geometry": {"type": "Point", "coordinates": [-98.57454881243974, -0.0386661805160297]}}, {"type": "Feature", "properties": {"norad_id": 54026, "name": "GALAXY 33 (G-33)", "group": "intelsat", "lat": -0.026471900447534776, "lon": -106.57671517669186, "alt_km": 35776.96545883158, "timestamp": "2025-12-07T20:38:13.745498+00:00", "meta": {"OBJECT_NAME": "GALAXY 33 (G-33)", "OBJECT_ID": "2022-128A", "EPOCH": "2025-12-07T07:02:44.849760", "MEAN_MOTION": 1.0027046, "ECCENTRICITY": 0.00022298, "INCLINATION": 0.022, "RA_OF_ASC_NODE": 46.5976, "ARG_OF_PERICENTER": 205.519, "MEAN_ANOMALY": 156.8866, "EPHEMERIS_TYPE": 0, "CLASSIFICATION_TYPE": "U", "NORAD_CAT_ID": 54026, "ELEMENT_SET_NO": 999, "REV_AT_EPOCH": 1181, "BSTAR": 0, "MEAN_MOTION_DOT": 8.4e-07, "MEAN_MOTION_DDOT": 0}, "tle": {"line1": "1 54026U 22128A   25341.29357465  .00000084  00000+0  00000+0 0  9998", "line2": "2 54026   0.0220  46.5976 0002229 205.5190 156.8866  1.00270460 11818"}}, "geometry": {"type": "Point", "coordinates": [-106.57671517669186, -0.026471900447534776]}}, {"type": "Feature", "properties": {"norad_id": 54027, "name": "GALAXY 34 (G-34)", "group": "intelsat", "lat": -0.04366540565113045, "lon": -102.51135438396435, "alt_km": 35780.93953499809, "timestamp": "2025-12-07T20:38:13.745510+00:00", "meta": {"OBJECT_NAME": "GALAXY 34 (G-34)", "OBJECT_ID": "2022-128B", "EPOCH": "2025-12-07T06:10:20.350272", "MEAN_MOTION": 1.0027003, "ECCENTRICITY": 0.00013342, "INCLINATION": 0.0204, "RA_OF_ASC_NODE": 351.7204, "ARG_OF_PERICENTER": 257.4803, "MEAN_ANOMALY": 150.7295, "EPHEMERIS_TYPE": 0, "CLASSIFICATION_TYPE": "U", "NORAD_CAT_ID": 54027, "ELEMENT_SET_NO": 999, "REV_AT_EPOCH": 1198, "BSTAR": 0, "MEAN_MOTION_DOT": 0, "MEAN_MOTION_DDOT": 0}, "tle": {"line1": "1 54027U 22128B   25341.25717998  .00000000  00000+0  00000+0 0  9994", "line2": "2 54027   0.0204 351.7204 0001334 257.4803 150.7295  1.00270030 11989"}}, "geometry": {"type": "Point", "coordinates": [-102.51135438396435, -0.04366540565113045]}}, {"type": "Feature", "properties": {"norad_id": 54243, "name": "GALAXY 31 (G-31)", "group": "intelsat", "lat": -0.016475454711700827, "lon": -94.57276405401704, "alt_km": 35777.92486665099, "timestamp": "2025-12-07T20:38:13.745521+00:00", "meta": {"OBJECT_NAME": "GALAXY 31 (G-31)", "OBJECT_ID": "2022-153A", "EPOCH": "2025-12-07T06:12:42.623424", "MEAN_MOTION": 1.00271085, "ECCENTRICITY": 0.00019672, "INCLINATION": 0.019, "RA_OF_ASC_NODE": 75.829, "ARG_OF_PERICENTER": 192.1195, "MEAN_ANOMALY": 140.5155, "EPHEMERIS_TYPE": 0, "CLASSIFICATION_TYPE": "U", "NORAD_CAT_ID": 54243, "ELEMENT_SET_NO": 999, "REV_AT_EPOCH": 520, "BSTAR": 0, "MEAN_MOTION_DOT": 1.8e-07, "MEAN_MOTION_DDOT": 0}, "tle": {"line1": "1 54243U 22153A   25341.25882666  .00000018  00000+0  00000+0 0  9996", "line2": "2 54243   0.0190  75.8290 0001967 192.1195 140.5155  1.00271085  5204"}}, "geometry": {"type": "Point", "coordinates": [-94.57276405401704, -0.016475454711700827]}}, {"type": "Feature", "properties": {"norad_id": 54244, "name": "GALAXY 32 (G-32)", "group": "intelsat", "lat": -0.019083831032853903, "lon": -64.57075674140833, "alt_km": 35774.58238078321, "timestamp": "2025-12-07T20:38:13.745533+00:00", "meta": {"OBJECT_NAME": "GALAXY 32 (G-32)", "OBJECT_ID": "2022-153B", "EPOCH": "2025-12-07T06:21:11.809728", "MEAN_MOTION": 1.00273035, "ECCENTRICITY": 0.00026752, "INCLINATION": 0.0108, "RA_OF_ASC_NODE": 324.2111, "ARG_OF_PERICENTER": 338.9288, "MEAN_ANOMALY": 137.4527, "EPHEMERIS_TYPE": 0, "CLASSIFICATION_TYPE": "U", "NORAD_CAT_ID": 54244, "ELEMENT_SET_NO": 999, "REV_AT_EPOCH": 1122, "BSTAR": 0, "MEAN_MOTION_DOT": -1.7e-06, "MEAN_MOTION_DDOT": 0}, "tle": {"line1": "1 54244U 22153B   25341.26472002 -.00000170  00000+0  00000+0 0  9997", "line2": "2 54244   0.0108 324.2111 0002675 338.9288 137.4527  1.00273035 11221"}}, "geometry": {"type": "Point", "coordinates": [-64.57075674140833, -0.019083831032853903]}}, {"type": "Feature", "properties": {"norad_id": 54741, "name": "GALAXY 35 (G-35)", "group": "intelsat", "lat": -0.019354368941078115, "lon": -66.64462316477668, "alt_km": 35776.42966330009, "timestamp": "2025-12-07T20:38:13.745545+00:00", "meta": {"OBJECT_NAME": "GALAXY 35 (G-35)", "OBJECT_ID": "2022-170A", "EPOCH": "2025-12-07T06:20:34.370016", "MEAN_MOTION": 1.00271089, "ECCENTRICITY": 0.00027148, "INCLINATION": 0.0095, "RA_OF_ASC_NODE": 46.8987, "ARG_OF_PERICENTER": 215.6872, "MEAN_ANOMALY": 175.7605, "EPHEMERIS_TYPE": 0, "CLASSIFICATION_TYPE": "U", "NORAD_CAT_ID": 54741, "ELEMENT_SET_NO": 999, "REV_AT_EPOCH": 1096, "BSTAR": 0, "MEAN_MOTION_DOT": -1.58e-06, "MEAN_MOTION_DDOT": 0}, "tle": {"line1": "1 54741U 22170A   25341.26428669 -.00000158  00000+0  00000+0 0  9994", "line2": "2 54741   0.0095  46.8987 0002714 215.6872 175.7605  1.00271089 10969"}}, "geometry": {"type": "Point", "coordinates": [-66.64462316477668, -0.019354368941078115]}}, {"type": "Feature", "properties": {"norad_id": 54742, "name": "GALAXY 36 (G-36)", "group": "intelsat", "lat": -0.025145126451034113, "lon": -62.583114524040745, "alt_km": 35784.35772779548, "timestamp": "2025-12-07T20:38:13.745556+00:00", "meta": {"OBJECT_NAME": "GALAXY 36 (G-36)", "OBJECT_ID": "2022-170B", "EPOCH": "2025-12-07T06:21:49.251168", "MEAN_MOTION": 1.00269277, "ECCENTRICITY": 6.275e-05, "INCLINATION": 0.0106, "RA_OF_ASC_NODE": 348.9133, "ARG_OF_PERICENTER": 286.9381, "MEAN_ANOMALY": 166.8867, "EPHEMERIS_TYPE": 0, "CLASSIFICATION_TYPE": "U", "NORAD_CAT_ID": 54742, "ELEMENT_SET_NO": 999, "REV_AT_EPOCH": 1084, "BSTAR": 0, "MEAN_MOTION_DOT": 0, "MEAN_MOTION_DDOT": 0}, "tle": {"line1": "1 54742U 22170B   25341.26515337  .00000000  00000+0  00000+0 0  9999", "line2": "2 54742   0.0106 348.9133 0000627 286.9381 166.8867  1.00269277 10843"}}, "geometry": {"type": "Point", "coordinates": [-62.583114524040745, -0.025145126451034113]}}, {"type": "Feature", "properties": {"norad_id": 57493, "name": "GALAXY 37 (G-37)", "group": "intelsat", "lat": -0.030175007601963316, "lon": -100.5719829552496, "alt_km": 35776.15695583756, "timestamp": "2025-12-07T20:38:13.745568+00:00", "meta": {"OBJECT_NAME": "GALAXY 37 (G-37)", "OBJECT_ID": "2023-112A", "EPOCH": "2025-12-07T06:10:57.790848", "MEAN_MOTION": 1.00270729, "ECCENTRICITY": 0.00024043, "INCLINATION": 0.0072, "RA_OF_ASC_NODE": 338.735, "ARG_OF_PERICENTER": 282.25, "MEAN_ANOMALY": 141.0424, "EPHEMERIS_TYPE": 0, "CLASSIFICATION_TYPE": "U", "NORAD_CAT_ID": 57493, "ELEMENT_SET_NO": 999, "REV_AT_EPOCH": 861, "BSTAR": 0, "MEAN_MOTION_DOT": 5.3e-07, "MEAN_MOTION_DDOT": 0}, "tle": {"line1": "1 57493U 23112A   25341.25761332  .00000053  00000+0  00000+0 0  9997", "line2": "2 57493   0.0072 338.7350 0002404 282.2500 141.0424  1.00270729  8616"}}, "geometry": {"type": "Point", "coordinates": [-100.5719829552496, -0.030175007601963316]}}]}